[{"OBJECT_NAME":"STARLINK-4776","OBJECT_ID":"2022-114V","EPOCH":"2026-03-09T21:01:37.004736","MEAN_MOTION":15.08823289,"ECCENTRICITY":0.00014363,"INCLINATION":53.2184,"RA_OF_ASC_NODE":302.9943,"ARG_OF_PERICENTER":88.7474,"MEAN_ANOMALY":271.3683,"EPHEMERIS_TYPE":0,"CLASSIFICATION_TYPE":"U","NORAD_CAT_ID":53837,"ELEMENT_SET_NO":999,"REV_AT_EPOCH":19286,"BSTAR":-0.0001558528,"MEAN_MOTION_DOT":-2.766e-5,"MEAN_MOTION_DDOT":0},{"OBJECT_NAME":"COSMOS 2535 DEB","OBJECT_ID":"2019-039H","EPOCH":"2026-03-09T01:37:49.505376","MEAN_MOTION":15.12536261,"ECCENTRICITY":0.00199509,"INCLINATION":97.5365,"RA_OF_ASC_NODE":108.6978,"ARG_OF_PERICENTER":50.248,"MEAN_ANOMALY":310.0505,"EPHEMERIS_TYPE":0,"CLASSIFICATION_TYPE":"U","NORAD_CAT_ID":44631,"ELEMENT_SET_NO":999,"REV_AT_EPOCH":34980,"BSTAR":0.00071319108,"MEAN_MOTION_DOT":0.00012434,"MEAN_MOTION_DDOT":0}]
